ONEWEB-0279             
1 48997U 21060AG  25259.07671479  .00000079  00000+0  17327-3 0  9998
2 48997  87.8980 283.3974 0001592  86.4954 273.6359 13.16593141203552
ONEWEB-0280             
1 48998U 21060AH  25259.09177412  .00000053  00000+0  10594-3 0  9990
2 48998  87.8981 283.4025 0001693 102.5123 257.6198 13.16593314203490
ONEWEB-0281             
1 48999U 21060AJ  25259.02132490  .00000026  00000+0  34977-4 0  9993
2 48999  87.8980 283.4134 0001956  88.3749 271.7606 13.16594003203552
ONEWEB-0282             
1 49000U 21060AK  25259.05139670  .00000099  00000+0  22469-3 0  9999
2 49000  87.8981 283.4172 0001699  95.6797 264.4528 13.16594978203538
ONEWEB-0283             
1 49001U 21060AL  25259.04030765  .00000073  00000+0  15714-3 0  9991
2 49001  87.8975 283.4217 0001669  91.2113 268.9209 13.16595380203547
ONEWEB-0284             
1 49002U 21060AM  25259.03398343  .00000025  00000+0  32033-4 0  9991
2 49002  87.8988 283.4043 0002019 101.5090 258.6268 13.16595139203529
ONEWEB-0285             
1 49075U 21075A   25259.14017489 -.00000254  00000+0 -74157-3 0  9996
2 49075  87.8896  45.1048 0001616  98.2636 261.8676 13.12444119199266
ONEWEB-0286             
1 49076U 21075B   25259.12204230 -.00000378  00000+0 -10869-2 0  9993
2 49076  87.8911  45.1428 0001851  93.2811 266.8530 13.12441633198618
ONEWEB-0287             
1 49077U 21075C   25259.18895259  .00000126  00000+0  29105-3 0  9990
2 49077  87.9053  60.3626 0002040  91.9959 268.1407 13.17647140197540
ONEWEB-0288             
1 49078U 21075D   25259.09786224  .00000410  00000+0  11053-2 0  9990
2 49078  87.8905  45.1080 0001772  99.8461 260.2867 13.12442917199238
ONEWEB-0289             
1 49079U 21075E   25259.15168939 -.00000063  00000+0 -19484-3 0  9998
2 49079  87.9043  60.3952 0001683 107.2053 252.9263 13.17648486198110
ONEWEB-0290             
1 49080U 21075F   25259.20075621  .00000047  00000+0  88290-4 0  9993
2 49080  87.9048  60.3399 0001411 113.0659 247.0622 13.17649731197531
ONEWEB-0291             
1 49081U 21075G   25259.18558158 -.00000084  00000+0 -24878-3 0  9996
2 49081  87.9052  60.3477 0002031 100.8434 259.2927 13.17650060197527
ONEWEB-0293             
1 49082U 21075H   25259.21088164 -.00000001  00000+0 -36814-4 0  9999
2 49082  87.9040  60.3716 0001692  97.9307 262.2017 13.17650522197558
ONEWEB-0294             
1 49083U 21075J   25259.10435295  .00000180  00000+0  46412-3 0  9999
2 49083  87.8904  45.1072 0001707 113.0864 247.0445 13.12442554198622
ONEWEB-0295             
1 49084U 21075K   25259.21004637  .00000038  00000+0  64480-4 0  9992
2 49084  87.9050  60.3754 0002070  98.0446 262.0920 13.17648370197515
ONEWEB-0296             
1 49085U 21075L   25259.16112160  .00000381  00000+0  10241-2 0  9993
2 49085  87.8905  45.1015 0002101 108.4115 251.7242 13.12443842198637
