[{"OBJECT_NAME":"ONEWEB-0279","OBJECT_ID":"2021-060AG","EPOCH":"2025-09-16T01:50:28.157856","MEAN_MOTION":13.16593141,"ECCENTRICITY":0.00015928,"INCLINATION":87.898,"RA_OF_ASC_NODE":283.3974,"ARG_OF_PERICENTER":86.4954,"MEAN_ANOMALY":273.6359,"EPHEMERIS_TYPE":0,"CLASSIFICATION_TYPE":"U","NORAD_CAT_ID":48997,"ELEMENT_SET_NO":999,"REV_AT_EPOCH":20355,"BSTAR":0.0001732694,"MEAN_MOTION_DOT":7.9e-7,"MEAN_MOTION_DDOT":0},{"OBJECT_NAME":"ONEWEB-0280","OBJECT_ID":"2021-060AH","EPOCH":"2025-09-16T02:12:09.283968","MEAN_MOTION":13.16593314,"ECCENTRICITY":0.00016931,"INCLINATION":87.8981,"RA_OF_ASC_NODE":283.4025,"ARG_OF_PERICENTER":102.5123,"MEAN_ANOMALY":257.6198,"EPHEMERIS_TYPE":0,"CLASSIFICATION_TYPE":"U","NORAD_CAT_ID":48998,"ELEMENT_SET_NO":999,"REV_AT_EPOCH":20349,"BSTAR":0.00010594337,"MEAN_MOTION_DOT":5.3e-7,"MEAN_MOTION_DDOT":0},{"OBJECT_NAME":"ONEWEB-0281","OBJECT_ID":"2021-060AJ","EPOCH":"2025-09-16T00:30:42.471360","MEAN_MOTION":13.16594003,"ECCENTRICITY":0.00019565,"INCLINATION":87.898,"RA_OF_ASC_NODE":283.4134,"ARG_OF_PERICENTER":88.3749,"MEAN_ANOMALY":271.7606,"EPHEMERIS_TYPE":0,"CLASSIFICATION_TYPE":"U","NORAD_CAT_ID":48999,"ELEMENT_SET_NO":999,"REV_AT_EPOCH":20355,"BSTAR":3.4977458e-5,"MEAN_MOTION_DOT":2.6e-7,"MEAN_MOTION_DDOT":0},{"OBJECT_NAME":"ONEWEB-0282","OBJECT_ID":"2021-060AK","EPOCH":"2025-09-16T01:14:00.674880","MEAN_MOTION":13.16594978,"ECCENTRICITY":0.00016993,"INCLINATION":87.8981,"RA_OF_ASC_NODE":283.4172,"ARG_OF_PERICENTER":95.6797,"MEAN_ANOMALY":264.4528,"EPHEMERIS_TYPE":0,"CLASSIFICATION_TYPE":"U","NORAD_CAT_ID":49000,"ELEMENT_SET_NO":999,"REV_AT_EPOCH":20353,"BSTAR":0.00022469472,"MEAN_MOTION_DOT":9.9e-7,"MEAN_MOTION_DDOT":0},{"OBJECT_NAME":"ONEWEB-0283","OBJECT_ID":"2021-060AL","EPOCH":"2025-09-16T00:58:02.580960","MEAN_MOTION":13.1659538,"ECCENTRICITY":0.00016698,"INCLINATION":87.8975,"RA_OF_ASC_NODE":283.4217,"ARG_OF_PERICENTER":91.2113,"MEAN_ANOMALY":268.9209,"EPHEMERIS_TYPE":0,"CLASSIFICATION_TYPE":"U","NORAD_CAT_ID":49001,"ELEMENT_SET_NO":999,"REV_AT_EPOCH":20354,"BSTAR":0.0001571418,"MEAN_MOTION_DOT":7.3e-7,"MEAN_MOTION_DDOT":0},{"OBJECT_NAME":"ONEWEB-0284","OBJECT_ID":"2021-060AM","EPOCH":"2025-09-16T00:48:56.168352","MEAN_MOTION":13.16595139,"ECCENTRICITY":0.00020198,"INCLINATION":87.8988,"RA_OF_ASC_NODE":283.4043,"ARG_OF_PERICENTER":101.509,"MEAN_ANOMALY":258.6268,"EPHEMERIS_TYPE":0,"CLASSIFICATION_TYPE":"U","NORAD_CAT_ID":49002,"ELEMENT_SET_NO":999,"REV_AT_EPOCH":20352,"BSTAR":3.2032705e-5,"MEAN_MOTION_DOT":2.5e-7,"MEAN_MOTION_DDOT":0},{"OBJECT_NAME":"ONEWEB-0285","OBJECT_ID":"2021-075A","EPOCH":"2025-09-16T03:21:51.110496","MEAN_MOTION":13.12444119,"ECCENTRICITY":0.00016162,"INCLINATION":87.8896,"RA_OF_ASC_NODE":45.1048,"ARG_OF_PERICENTER":98.2636,"MEAN_ANOMALY":261.8676,"EPHEMERIS_TYPE":0,"CLASSIFICATION_TYPE":"U","NORAD_CAT_ID":49075,"ELEMENT_SET_NO":999,"REV_AT_EPOCH":19926,"BSTAR":-0.00074157346,"MEAN_MOTION_DOT":-2.54e-6,"MEAN_MOTION_DDOT":0},{"OBJECT_NAME":"ONEWEB-0286","OBJECT_ID":"2021-075B","EPOCH":"2025-09-16T02:55:44.454720","MEAN_MOTION":13.12441633,"ECCENTRICITY":0.00018516,"INCLINATION":87.8911,"RA_OF_ASC_NODE":45.1428,"ARG_OF_PERICENTER":93.2811,"MEAN_ANOMALY":266.853,"EPHEMERIS_TYPE":0,"CLASSIFICATION_TYPE":"U","NORAD_CAT_ID":49076,"ELEMENT_SET_NO":999,"REV_AT_EPOCH":19861,"BSTAR":-0.0010868727,"MEAN_MOTION_DOT":-3.78e-6,"MEAN_MOTION_DDOT":0},{"OBJECT_NAME":"ONEWEB-0287","OBJECT_ID":"2021-075C","EPOCH":"2025-09-16T04:32:05.503776","MEAN_MOTION":13.1764714,"ECCENTRICITY":0.00020401,"INCLINATION":87.9053,"RA_OF_ASC_NODE":60.3626,"ARG_OF_PERICENTER":91.9959,"MEAN_ANOMALY":268.1407,"EPHEMERIS_TYPE":0,"CLASSIFICATION_TYPE":"U","NORAD_CAT_ID":49077,"ELEMENT_SET_NO":999,"REV_AT_EPOCH":19754,"BSTAR":0.00029105162,"MEAN_MOTION_DOT":1.26e-6,"MEAN_MOTION_DDOT":0},{"OBJECT_NAME":"ONEWEB-0288","OBJECT_ID":"2021-075D","EPOCH":"2025-09-16T02:20:55.297536","MEAN_MOTION":13.12442917,"ECCENTRICITY":0.00017728,"INCLINATION":87.8905,"RA_OF_ASC_NODE":45.108,"ARG_OF_PERICENTER":99.8461,"MEAN_ANOMALY":260.2867,"EPHEMERIS_TYPE":0,"CLASSIFICATION_TYPE":"U","NORAD_CAT_ID":49078,"ELEMENT_SET_NO":999,"REV_AT_EPOCH":19923,"BSTAR":0.0011052704,"MEAN_MOTION_DOT":4.1e-6,"MEAN_MOTION_DDOT":0},{"OBJECT_NAME":"ONEWEB-0289","OBJECT_ID":"2021-075E","EPOCH":"2025-09-16T03:38:25.963296","MEAN_MOTION":13.17648486,"ECCENTRICITY":0.0001683,"INCLINATION":87.9043,"RA_OF_ASC_NODE":60.3952,"ARG_OF_PERICENTER":107.2053,"MEAN_ANOMALY":252.9263,"EPHEMERIS_TYPE":0,"CLASSIFICATION_TYPE":"U","NORAD_CAT_ID":49079,"ELEMENT_SET_NO":999,"REV_AT_EPOCH":19811,"BSTAR":-0.00019483563,"MEAN_MOTION_DOT":-6.3e-7,"MEAN_MOTION_DDOT":0},{"OBJECT_NAME":"ONEWEB-0290","OBJECT_ID":"2021-075F","EPOCH":"2025-09-16T04:49:05.336544","MEAN_MOTION":13.17649731,"ECCENTRICITY":0.00014113,"INCLINATION":87.9048,"RA_OF_ASC_NODE":60.3399,"ARG_OF_PERICENTER":113.0659,"MEAN_ANOMALY":247.0622,"EPHEMERIS_TYPE":0,"CLASSIFICATION_TYPE":"U","NORAD_CAT_ID":49080,"ELEMENT_SET_NO":999,"REV_AT_EPOCH":19753,"BSTAR":8.8290304e-5,"MEAN_MOTION_DOT":4.7e-7,"MEAN_MOTION_DDOT":0},{"OBJECT_NAME":"ONEWEB-0291","OBJECT_ID":"2021-075G","EPOCH":"2025-09-16T04:27:14.248512","MEAN_MOTION":13.1765006,"ECCENTRICITY":0.00020311,"INCLINATION":87.9052,"RA_OF_ASC_NODE":60.3477,"ARG_OF_PERICENTER":100.8434,"MEAN_ANOMALY":259.2927,"EPHEMERIS_TYPE":0,"CLASSIFICATION_TYPE":"U","NORAD_CAT_ID":49081,"ELEMENT_SET_NO":999,"REV_AT_EPOCH":19752,"BSTAR":-0.00024877949,"MEAN_MOTION_DOT":-8.4e-7,"MEAN_MOTION_DDOT":0},{"OBJECT_NAME":"ONEWEB-0293","OBJECT_ID":"2021-075H","EPOCH":"2025-09-16T05:03:40.173696","MEAN_MOTION":13.17650522,"ECCENTRICITY":0.00016927,"INCLINATION":87.904,"RA_OF_ASC_NODE":60.3716,"ARG_OF_PERICENTER":97.9307,"MEAN_ANOMALY":262.2017,"EPHEMERIS_TYPE":0,"CLASSIFICATION_TYPE":"U","NORAD_CAT_ID":49082,"ELEMENT_SET_NO":999,"REV_AT_EPOCH":19755,"BSTAR":-3.6814269e-5,"MEAN_MOTION_DOT":-1.0e-8,"MEAN_MOTION_DDOT":0},{"OBJECT_NAME":"ONEWEB-0294","OBJECT_ID":"2021-075J","EPOCH":"2025-09-16T02:30:16.094880","MEAN_MOTION":13.12442554,"ECCENTRICITY":0.00017075,"INCLINATION":87.8904,"RA_OF_ASC_NODE":45.1072,"ARG_OF_PERICENTER":113.0864,"MEAN_ANOMALY":247.0445,"EPHEMERIS_TYPE":0,"CLASSIFICATION_TYPE":"U","NORAD_CAT_ID":49083,"ELEMENT_SET_NO":999,"REV_AT_EPOCH":19862,"BSTAR":0.0004641237,"MEAN_MOTION_DOT":1.8e-6,"MEAN_MOTION_DDOT":0},{"OBJECT_NAME":"ONEWEB-0295","OBJECT_ID":"2021-075K","EPOCH":"2025-09-16T05:02:28.006368","MEAN_MOTION":13.1764837,"ECCENTRICITY":0.00020702,"INCLINATION":87.905,"RA_OF_ASC_NODE":60.3754,"ARG_OF_PERICENTER":98.0446,"MEAN_ANOMALY":262.092,"EPHEMERIS_TYPE":0,"CLASSIFICATION_TYPE":"U","NORAD_CAT_ID":49084,"ELEMENT_SET_NO":999,"REV_AT_EPOCH":19751,"BSTAR":6.4479797e-5,"MEAN_MOTION_DOT":3.8e-7,"MEAN_MOTION_DDOT":0},{"OBJECT_NAME":"ONEWEB-0296","OBJECT_ID":"2021-075L","EPOCH":"2025-09-16T03:52:00.906240","MEAN_MOTION":13.12443842,"ECCENTRICITY":0.00021017,"INCLINATION":87.8905,"RA_OF_ASC_NODE":45.1015,"ARG_OF_PERICENTER":108.4115,"MEAN_ANOMALY":251.7242,"EPHEMERIS_TYPE":0,"CLASSIFICATION_TYPE":"U","NORAD_CAT_ID":49085,"ELEMENT_SET_NO":999,"REV_AT_EPOCH":19863,"BSTAR":0.0010240522,"MEAN_MOTION_DOT":3.81e-6,"MEAN_MOTION_DDOT":0}]
